ONEWEB-0267             
1 48985U 21060U   26015.69085868 -.00000021  00000+0 -88172-4 0  9991
2 48985  87.9031 259.1342 0001398  73.0512 287.0772 13.16595570219523
ONEWEB-0268             
1 48986U 21060V   26015.73518669  .00000103  00000+0  23540-3 0  9993
2 48986  87.9031 259.1348 0001493  75.5890 284.5406 13.16595475219791
ONEWEB-0269             
1 48987U 21060W   26015.71618922  .00000003  00000+0 -26405-4 0  9999
2 48987  87.9020 259.1572 0001693  80.8733 279.2589 13.16595511219565
ONEWEB-0270             
1 48988U 21060X   26015.96160434  .00000121  00000+0  28351-3 0  9998
2 48988  87.9030 259.0914 0001088  71.5355 288.5894 13.16594876219634
ONEWEB-0271             
1 48989U 21060Y   26015.72094673  .00000048  00000+0  91260-4 0  9992
2 48989  87.9031 259.1292 0001342  71.0325 289.0951 13.16595185219602
ONEWEB-0272             
1 48990U 21060Z   26015.74310685  .00000073  00000+0  15794-3 0  9995
2 48990  87.9027 259.1377 0001547  69.4165 290.7131 13.16594802219551
ONEWEB-0273             
1 48991U 21060AA  26015.68928341 -.00000030  00000+0 -11271-3 0  9994
2 48991  87.9032 259.1454 0001297  75.0998 285.0276 13.16595087219523
ONEWEB-0274             
1 48992U 21060AB  26015.71461041  .00000015  00000+0  46755-5 0  9996
2 48992  87.9018 259.1596 0001734  70.8752 289.2566 13.16594827219565
